STARLINK-4063           
1 53132U 22083A   22286.91667824 -.00003015  00000+0 -17140-3 0  9998
2 53132  53.2175 353.1385 0002014  27.2712 220.6916 15.08838238  1301
STARLINK-4154           
1 53133U 22083B   22286.91667824 -.00001161  00000+0 -54861-4 0  9991
2 53133  53.2175 353.1385 0001858  32.4362 115.5270 15.08837223  1304
STARLINK-4150           
1 53134U 22083C   22286.91667824 -.00002058  00000+0 -11122-3 0  9990
2 53134  53.2175 353.1385 0002281  26.6562 181.3067 15.08837809  1308
STARLINK-4023           
1 53135U 22083D   22286.91667824 -.00001331  00000+0 -65555-4 0  9994
2 53135  53.2175 353.1385 0002179  31.2579 136.7053 15.08837375  1302
STARLINK-4152           
1 53136U 22083E   22286.91667824 -.00001640  00000+0 -84966-4 0  9995
2 53136  53.2175 353.1385 0002063  30.7531 157.2100 15.08837577  1302
STARLINK-4145           
1 53137U 22083F   22286.91667824 -.00002536  00000+0 -14130-3 0  9996
2 53137  53.2175 353.1385 0002213  28.7892 199.1737 15.08838038  1301
STARLINK-4141           
1 53138U 22083G   22287.25001157  .00036327  00000+0  22889-2 0  9998
2 53138  53.2183 346.6397 0002211  32.3434 309.4826 15.08838380 14345
STARLINK-4185           
1 53139U 22083H   22286.91667824 -.00003661  00000+0 -21204-3 0  9998
2 53139  53.2175 353.1385 0002358  24.9574 263.0054 15.08838426  1302
STARLINK-4170           
1 53140U 22083J   22286.91667824 -.00003382  00000+0 -19449-3 0  9998
2 53140  53.2175 353.1385 0002301  26.3766 241.5862 15.08838363  1309
STARLINK-4103           
1 53141U 22083K   22286.91667824 -.00003155  00000+0 -18023-3 0  9994
2 53141  53.2175 353.1385 0002250  26.9408 341.0224 15.08837902  1308
STARLINK-4101           
1 53142U 22083L   22286.91667824 -.00003762  00000+0 -21835-3 0  9994
2 53142  53.2175 353.1386 0002167  32.7419 275.2210 15.08838392  1301
STARLINK-4102           
1 53143U 22083M   22287.25001157  .00127981  00000+0  79244-2 0  9998
2 53143  53.2180 351.6407 0002124  33.4951   6.0240 15.08797829 14280
STARLINK-4100           
1 53144U 22083N   22286.91667824 -.00003713  00000+0 -21531-3 0  9995
2 53144  53.2175 353.1386 0001890  28.9332 299.0298 15.08838287  1309
STARLINK-4106           
1 53145U 22083P   22286.91667824 -.00001803  00000+0 -95196-4 0  9993
2 53145  53.2175 353.1385 0001862  37.7974  30.1660 15.08837258  1302
STARLINK-4099           
1 53146U 22083Q   22286.91667824 -.00003480  00000+0 -20067-3 0  9991
2 53146  53.2175 353.1385 0001808  32.1204 315.8427 15.08838108  1307
STARLINK-4094           
1 53147U 22083R   22286.91667824 -.00001429  00000+0 -71704-4 0  9998
2 53147  53.2175 353.1385 0001892  23.4820  64.4815 15.08837127  1306
STARLINK-4066           
1 53148U 22083S   22287.25001157  .00035741  00000+0  22526-2 0  9996
2 53148  53.2178 351.6392 0002211  31.6505  27.8776 15.08836512 14285
STARLINK-4021           
1 53149U 22083T   22286.91667824 -.00001247  00000+0 -60297-4 0  9993
2 53149  53.2175 343.1384 0001526  50.5184 352.4452 15.08836964  1309
STARLINK-4038           
1 53150U 22083U   22286.91667824  .00000114  00000+0  25285-4 0  9993
2 53150  53.2175 343.1384 0002062  32.6232 150.3403 15.08836621  1303
STARLINK-4040           
1 53151U 22083V   22286.91667824 -.00000769  00000+0 -30217-4 0  9993
2 53151  53.2176 343.1383 0001786  23.2741 219.6892 15.08837152  1308
STARLINK-4045           
1 53152U 22083W   22286.91667824 -.00000126  00000+0  10181-4 0  9998
2 53152  53.2175 343.1384 0001914  42.2503 160.7131 15.08836788  1305
STARLINK-4098           
1 53153U 22083X   22286.91667824 -.00001063  00000+0 -48691-4 0  9998
2 53153  53.2176 343.1383 0001722  37.1481 225.8152 15.08837268  1301
STARLINK-4077           
1 53154U 22083Y   22287.25001157 -.00041289  00000+0 -25899-2 0  9995
2 53154  53.2156 341.6442 0001636  46.7806 187.7777 15.08856025 14417
STARLINK-4088           
1 53155U 22083Z   22287.25001157 -.00144612  00000+0 -92392-2 0  9992
2 53155  53.2159 341.6429 0001500  56.6375 257.9414 15.08895420 14417
STARLINK-4087           
1 53156U 22083AA  22286.91667824 -.00001424  00000+0 -71405-4 0  9991
2 53156  53.2176 343.1384 0001627  60.7457 237.0176 15.08837340  1306
STARLINK-4093           
1 53157U 22083AB  22287.25001157 -.00025327  00000+0 -15782-2 0  9993
2 53157  53.2170 341.6378 0001449  53.8495 300.7029 15.08853885 14428
STARLINK-4054           
1 53158U 22083AC  22286.91667824 -.00001305  00000+0 -63934-4 0  9999
2 53158  53.2176 343.1384 0001309  51.3209 231.6424 15.08837328  1308
STARLINK-4111           
1 53159U 22083AD  22286.91667824 -.00001543  00000+0 -78844-4 0  9990
2 53159  53.2175 343.1384 0002419  25.5300 357.4335 15.08837116  1309
STARLINK-4096           
1 53160U 22083AE  22286.91667824 -.00001602  00000+0 -82602-4 0  9995
2 53160  53.2175 343.1384 0001688  59.2321 263.7313 15.08837335  1303
STARLINK-4055           
1 53161U 22083AF  22286.91667824 -.00000652  00000+0 -22848-4 0  9996
2 53161  53.2175 343.1384 0001650  51.7348  31.2288 15.08836706  1309
STARLINK-4114           
1 53162U 22083AG  22286.91667824 -.00001556  00000+0 -79705-4 0  9995
2 53162  53.2175 343.1384 0001314  70.7547 292.2087 15.08837175  1306
STARLINK-4104           
1 53163U 22083AH  22286.91667824 -.00000092  00000+0  12290-4 0  9995
2 53163  53.2175 343.1384 0001668  38.1823  79.5814 15.08836515  1305
STARLINK-4116           
1 53164U 22083AJ  22287.25001157  .00083409  00000+0  52014-2 0  9993
2 53164  53.2183 341.6383 0001708  48.0738  26.4561 15.08811918 14424
STARLINK-4090           
1 53165U 22083AK  22286.91667824  .00000118  00000+0  25541-4 0  9998
2 53165  53.2175 343.1384 0001705  43.5852  99.3784 15.08836489  1307
STARLINK-4110           
1 53166U 22083AL  22286.91667824 -.00000301  00000+0 -82391-6 0  9993
2 53166  53.2175 343.1384 0001375  43.0479  59.9157 15.08836581  1300
STARLINK-3683           
1 53167U 22083AM  22287.25001157 -.01053054  00000+0 -20694-1 0  9990
2 53167  53.2176 329.1086 0005923 272.6129 273.8822 15.49465379 14599
STARLINK-4105           
1 53168U 22083AN  22286.91667824 -.00000035  00000+0  15877-4 0  9991
2 53168  53.2175 343.1384 0001752  40.2363  82.7273 15.08836501  1307
STARLINK-4117           
1 53169U 22083AP  22286.91667824 -.01055551  00000+0 -21356-1 0  9993
2 53169  53.2174 330.6291 0001333  56.5564  67.2017 15.48697942  1305
STARLINK-4095           
1 53170U 22083AQ  22286.91667824 -.00000245  00000+0  26999-5 0  9995
2 53170  53.2175 338.1383 0001797  49.8453 255.4183 15.08836743  1304
STARLINK-4052           
1 53171U 22083AR  22286.91667824  .00000438  00000+0  75737-5 0  9993
2 53171  53.2175 329.6849 0004803 315.1094 289.3235 15.73203677  1308
STARLINK-4299           
1 53172U 22083AS  22286.91667824 -.00000386  00000+0 -61649-5 0  9995
2 53172  53.2175 338.1383 0001842  47.5729 277.6906 15.08836749  1303
STARLINK-4300           
1 53173U 22083AT  22286.91667824  .00000361  00000+0  70304-5 0  9995
2 53173  53.2175 329.6911 0005315 309.3401 292.1122 15.73203721  1303
STARLINK-4205           
1 53174U 22083AU  22286.91667824 -.00001245  00000+0 -60143-4 0  9999
2 53174  53.2175 353.1385 0001751  43.1689  64.7944 15.08837112  1302
STARLINK-4292           
1 53175U 22083AV  22286.91667824 -.00001127  00000+0 -52689-4 0  9995
2 53175  53.2175 353.1385 0001962  32.3171  95.6462 15.08837127  1307
STARLINK-4294           
1 53176U 22083AW  22287.25001157 -.01058518  00000+0 -20625-1 0  9994
2 53176  53.2176 329.1208 0001684  49.4683 137.9970 15.49764415 14597
STARLINK-4298           
1 53177U 22083AX  22286.91667824  .00000150  00000+0  55462-5 0  9993
2 53177  53.2175 329.6889 0006649 300.8657 301.7788 15.73203815  1300
STARLINK-4280           
1 53178U 22083AY  22286.91667824  .00000204  00000+0  30931-4 0  9997
2 53178  53.2175 343.1384 0002177  34.6390 128.3246 15.08836510  1304
STARLINK-4276           
1 53179U 22083AZ  22287.25001157 -.00150384  00000+0 -10820-2 0  9997
2 53179  53.2160 328.0414 0006369 300.9137  34.8740 15.73256605 14600
STARLINK-4258           
1 53180U 22083BA  22287.25001157 -.00207649  00000+0 -15026-2 0  9999
2 53180  53.2160 328.0499 0006840 300.0039  30.9879 15.73299625 14600
STARLINK-4273           
1 53181U 22083BB  22286.91667824  .00000347  00000+0  69372-5 0  9991
2 53181  53.2175 329.6867 0005350 309.7937 294.0431 15.73203720  1302
STARLINK-4278           
1 53182U 22083BC  22287.25001157 -.00287978  00000+0 -21039-2 0  9995
2 53182  53.2160 328.0471 0005396 309.8055  22.4000 15.73329826 14601
STARLINK-4268           
1 53183U 22083BD  22286.91667824  .00000157  00000+0  55980-5 0  9992
2 53183  53.2175 329.6843 0006635 295.3937 309.6353 15.73203802  1302
STARLINK-4257           
1 53184U 22083BE  22286.91667824  .00000362  00000+0  70399-5 0  9992
2 53184  53.2175 329.6812 0005174 310.5365 295.6847 15.73203708  1308
